NORAD_CAT_ID,OBJECT_NAME,OBJECT_TYPE,EPOCH,MEAN_MOTION,ECCENTRICITY,INCLINATION,RA_OF_ASC_NODE,ARG_OF_PERICENTER,MEAN_ANOMALY,BSTAR,MEAN_MOTION_DOT,MEAN_MOTION_DDOT,TLE_LINE0,TLE_LINE1,TLE_LINE2,SEMIMAJOR_AXIS,PERIOD,APOGEE,PERIGEE,DECAYED
55940.0,STARLINK-5864,PAYLOAD,2024-02-18 22:19:57,14.98334491,0.0002405,70.0019,14.8616,269.3032,90.7851,1.894e-05,1.33e-06,0.0,0 STARLINK-5864,1 55940U 23037AC  24049.93053102  .00000133  00000-0  18940-4 0  9993,2 55940  70.0019  14.8616 0002405 269.3032  90.7851 14.98334491 51679,6950.179,96.107,573.716,570.372,0.0
55940.0,STARLINK-5864,PAYLOAD,2024-02-19 07:56:45,14.98342215,0.0002253,70.0018,13.8517,264.8779,95.2123,-2.5842e-05,-4.01e-06,0.0,0 STARLINK-5864,1 55940U 23037AC  24050.33108559 -.00000401  00000-0 -25842-4 0  9995,2 55940  70.0018  13.8517 0002253 264.8779  95.2123 14.98342215 52076,6950.155,96.106,573.586,570.454,0.0
55940.0,STARLINK-5864,PAYLOAD,2024-02-19 14:21:19,14.9832867,0.0002342,70.0026,13.1779,272.3467,87.7424,-0.00012904,-1.632e-05,0.0,0 STARLINK-5864,1 55940U 23037AC  24050.59813718 -.00001632  00000-0 -12904-3 0  9994,2 55940  70.0026  13.1779 0002342 272.3467  87.7424 14.98328670 51770,6950.197,96.107,573.69,570.434,0.0
55940.0,STARLINK-5864,PAYLOAD,2024-02-19 22:21:59,14.98319567,0.0003025,70.0044,12.3382,267.9614,92.1198,5.7852e-05,5.97e-06,0.0,0 STARLINK-5864,1 55940U 23037AC  24050.93193652  .00000597  00000-0  57852-4 0  9999,2 55940  70.0044  12.3382 0003025 267.9614  92.1198 14.98319567 51823,6950.225,96.108,574.193,569.988,0.0
55940.0,STARLINK-5864,PAYLOAD,2024-02-20 14:23:19,14.98337719,0.0002276,70.0017,10.654,273.5132,86.5766,7.0717e-05,7.51e-06,0.0,0 STARLINK-5864,1 55940U 23037AC  24051.59952778  .00000751  00000-0  70717-4 0  9991,2 55940  70.0017  10.6540 0002276 273.5132  86.5766 14.98337719 51923,6950.169,96.107,573.616,570.452,0.0
55940.0,STARLINK-5864,PAYLOAD,2024-02-20 22:23:58,14.98344698,0.0003067,70.0018,9.8116,265.8983,94.1826,0.00010781,1.194e-05,0.0,0 STARLINK-5864,1 55940U 23037AC  24051.93331646  .00001194  00000-0  10781-3 0  9990,2 55940  70.0018   9.8116 0003067 265.8983  94.1826 14.98344698 51971,6950.147,96.106,574.144,569.881,0.0
55940.0,STARLINK-5864,PAYLOAD,2024-02-21 03:12:22,14.98349088,0.0003141,70.0007,9.3061,269.3742,90.7058,0.00013687,1.541e-05,0.0,0 STARLINK-5864,1 55940U 23037AC  24052.13359085  .00001541  00000-0  13687-3 0  9994,2 55940  70.0007   9.3061 0003141 269.3742  90.7058 14.98349088 52347,6950.134,96.106,574.182,569.816,0.0
55940.0,STARLINK-5864,PAYLOAD,2024-02-21 14:25:20,14.98331309,0.0001965,70.003,8.1285,279.2032,80.8905,-9.0364e-05,-1.171e-05,0.0,0 STARLINK-5864,1 55940U 23037AC  24052.60092792 -.00001171  00000-0 -90364-4 0  9994,2 55940  70.0030   8.1285 0001965 279.2032  80.8905 14.98331309 52070,6950.189,96.107,573.42,570.688,0.0
55940.0,STARLINK-5864,PAYLOAD,2024-02-21 22:26:01,14.98305368,0.0003084,70.0016,7.2881,274.3979,85.6827,-0.00014126,-1.777e-05,0.0,0 STARLINK-5864,1 55940U 23037AC  24052.93474388 -.00001777  00000-0 -14126-3 0  9998,2 55940  70.0016   7.2881 0003084 274.3979  85.6827 14.98305368 52124,6950.269,96.109,574.278,569.991,0.0
55940.0,STARLINK-5864,PAYLOAD,2024-02-22 03:14:26,14.98309335,0.0002924,70.0015,6.7822,274.0078,86.0747,-0.00016056,-2.007e-05,0.0,0 STARLINK-5864,1 55940U 23037AC  24053.13502444 -.00002007  00000-0 -16056-3 0  9997,2 55940  70.0015   6.7822 0002924 274.0078  86.0747 14.98309335 52495,6950.257,96.108,574.154,570.09,0.0
55940.0,STARLINK-5864,PAYLOAD,2024-02-22 14:27:22,14.98320238,0.0002896,70.0018,5.6051,274.4571,85.6258,-7.3845e-05,-9.74e-06,0.0,0 STARLINK-5864,1 55940U 23037AC  24053.60233914 -.00000974  00000-0 -73845-4 0  9993,2 55940  70.0018   5.6051 0002896 274.4571  85.6258 14.98320238 52228,6950.223,96.108,574.101,570.075,0.0
55940.0,STARLINK-5864,PAYLOAD,2024-02-22 22:28:01,14.9833451,0.0003033,70.0014,4.7632,274.7922,85.289,-0.00017403,-2.169e-05,0.0,0 STARLINK-5864,1 55940U 23037AC  24053.93613207 -.00002169  00000-0 -17403-3 0  9991,2 55940  70.0014   4.7632 0003033 274.7922  85.2890 14.98334510 52277,6950.179,96.107,574.152,569.936,0.0
55940.0,STARLINK-5864,PAYLOAD,2024-02-23 03:16:25,14.98336239,0.0002992,70.0013,4.2579,272.1542,87.9274,-0.00017024,-2.124e-05,0.0,0 STARLINK-5864,1 55940U 23037AC  24054.13641054 -.00002124  00000-0 -17024-3 0  9995,2 55940  70.0013   4.2579 0002992 272.1542  87.9274 14.98336239 52640,6950.174,96.107,574.118,569.959,0.0
55940.0,STARLINK-5864,PAYLOAD,2024-02-23 14:29:21,14.98336401,0.0002861,70.0017,3.0799,276.6782,83.4052,-7.9433e-05,-1.041e-05,0.0,0 STARLINK-5864,1 55940U 23037AC  24054.60372681 -.00001041  00000-0 -79433-4 0  9994,2 55940  70.0017   3.0799 0002861 276.6782  83.4052 14.98336401 52371,6950.173,96.107,574.027,570.05,0.0
55940.0,STARLINK-5864,PAYLOAD,2024-02-23 22:30:02,14.98316762,0.0002913,70.0019,2.2385,278.4832,81.5997,0.00019523,2.236e-05,0.0,0 STARLINK-5864,1 55940U 23037AC  24054.93753355  .00002236  00000-0  19523-3 0  9999,2 55940  70.0019   2.2385 0002913 278.4832  81.5997 14.98316762 52420,6950.234,96.108,574.123,570.074,0.0
55940.0,STARLINK-5864,PAYLOAD,2024-02-24 03:18:26,14.98323178,0.0002738,70.0014,1.7322,269.8249,90.2596,0.00018233,2.083e-05,0.0,0 STARLINK-5864,1 55940U 23037AC  24055.13781083  .00002083  00000-0  18233-3 0  9998,2 55940  70.0014   1.7322 0002738 269.8249  90.2596 14.98323178 52792,6950.214,96.107,573.982,570.176,0.0
55940.0,STARLINK-5864,PAYLOAD,2024-02-24 06:30:42,14.9832537,0.000276,70.002,1.3964,277.0136,83.0709,0.00022282,2.566e-05,0.0,0 STARLINK-5864,1 55940U 23037AC  24055.27132941  .00002566  00000-0  22282-3 0  9991,2 55940  70.0020   1.3964 0002760 277.0136  83.0709 14.98325370 52475,6950.207,96.107,573.99,570.154,0.0
55940.0,STARLINK-5864,PAYLOAD,2024-02-24 19:19:47,14.98331527,0.0002543,70.0027,0.0505,263.5606,96.5264,4.9942e-05,5.03e-06,0.0,0 STARLINK-5864,1 55940U 23037AC  24055.80541086  .00000503  00000-0  49942-4 0  9996,2 55940  70.0027   0.0505 0002543 263.5606  96.5264 14.98331527 52555,6950.188,96.107,573.821,570.286,0.0
55940.0,STARLINK-5864,PAYLOAD,2024-02-25 04:56:35,14.98331388,0.0002236,70.0031,359.0406,255.3888,104.7024,8.1488e-05,8.8e-06,0.0,0 STARLINK-5864,1 55940U 23037AC  24056.20596954  .00000880  00000-0  81488-4 0  9994,2 55940  70.0031 359.0406 0002236 255.3888 104.7024 14.98331388 52952,6950.189,96.107,573.608,570.5,0.0
55940.0,STARLINK-5864,PAYLOAD,2024-02-25 12:57:16,14.98335933,0.0001956,70.0043,358.1964,281.715,78.379,-9.4495e-05,-1.22e-05,0.0,0 STARLINK-5864,1 55940U 23037AC  24056.53977264 -.00001220  00000-0 -94495-4 0  9990,2 55940  70.0043 358.1964 0001956 281.7150  78.3790 14.98335933 52661,6950.175,96.107,573.399,570.68,0.0
55940.0,STARLINK-5864,PAYLOAD,2024-02-25 22:34:02,14.98350487,0.0002998,70.0021,357.1875,271.8248,88.2568,0.00024674,2.854e-05,0.0,0 STARLINK-5864,1 55940U 23037AC  24056.94031131  .00002854  00000-0  24674-3 0  9992,2 55940  70.0021 357.1875 0002998 271.8248  88.2568 14.98350487 52723,6950.13,96.106,574.078,569.911,0.0
55940.0,STARLINK-5864,PAYLOAD,2024-02-26 04:58:36,14.98334675,0.0002717,70.0018,356.5146,265.8898,94.1951,6.8255e-05,7.22e-06,0.0,0 STARLINK-5864,1 55940U 23037AC  24057.20736408  .00000722  00000-0  68255-4 0  9997,2 55940  70.0018 356.5146 0002717 265.8898  94.1951 14.98334675 53102,6950.178,96.107,573.932,570.155,0.0
55940.0,STARLINK-5864,PAYLOAD,2024-02-26 22:36:06,14.9832323,0.000281,70.0012,354.663,254.1333,105.9516,-0.00020883,-2.583e-05,0.0,0 STARLINK-5864,1 55940U 23037AC  24057.94173694 -.00002583  00000-0 -20883-3 0  9993,2 55940  70.0012 354.6630 0002810 254.1333 105.9516 14.98323230 52878,6950.214,96.107,574.032,570.126,0.0
55940.0,STARLINK-5864,PAYLOAD,2024-02-27 03:24:30,14.98326167,0.0002655,70.0015,354.1585,263.8388,96.2468,-0.00015297,-1.917e-05,0.0,0 STARLINK-5864,1 55940U 23037AC  24058.14201505 -.00001917  00000-0 -15297-3 0  9992,2 55940  70.0015 354.1585 0002655 263.8388  96.2468 14.98326167 53241,6950.205,96.107,573.915,570.224,0.0
55940.0,STARLINK-5864,PAYLOAD,2024-02-27 13:01:18,14.98329122,0.0002433,70.0017,353.1484,274.399,85.6891,-0.00013711,-1.728e-05,0.0,0 STARLINK-5864,1 55940U 23037AC  24058.54257477 -.00001728  00000-0 -13711-3 0  9994,2 55940  70.0017 353.1484 0002433 274.3990  85.6891 14.98329122 52964,6950.196,96.107,573.752,570.37,0.0
55940.0,STARLINK-5864,PAYLOAD,2024-02-27 22:38:06,14.98322624,0.0002596,70.0014,352.1386,263.7582,96.3282,-6.4327e-05,-8.6e-06,0.0,0 STARLINK-5864,1 55940U 23037AC  24058.94313561 -.00000860  00000-0 -64327-4 0  9991,2 55940  70.0014 352.1386 0002596 263.7582  96.3282 14.98322624 53021,6950.216,96.107,573.885,570.276,0.0
55940.0,STARLINK-5864,PAYLOAD,2024-02-28 03:26:30,14.98332444,0.0002672,70.0011,351.6342,261.8859,98.1997,-1.725e-05,-2.99e-06,0.0,0 STARLINK-5864,1 55940U 23037AC  24059.14340831 -.00000299  00000-0 -17250-4 0  9993,2 55940  70.0011 351.6342 0002672 261.8859  98.1997 14.98332444 53399,6950.185,96.107,573.907,570.193,0.0
55940.0,STARLINK-5864,PAYLOAD,2024-02-28 13:03:19,14.98323879,0.0002271,70.0015,350.6246,269.0675,91.0223,9.0313e-05,9.85e-06,0.0,0 STARLINK-5864,1 55940U 23037AC  24059.54397268  .00000985  00000-0  90313-4 0  9994,2 55940  70.0015 350.6246 0002271 269.0675  91.0223 14.98323879 53112,6950.212,96.107,573.655,570.498,0.0
55940.0,STARLINK-5864,PAYLOAD,2024-02-28 22:40:07,14.98326926,0.000287,70.0001,349.6132,271.9547,88.1283,6.848e-05,7.24e-06,0.0,0 STARLINK-5864,1 55940U 23037AC  24059.94452973  .00000724  00000-0  68480-4 0  9994,2 55940  70.0001 349.6132 0002870 271.9547  88.1283 14.98326926 53179,6950.202,96.107,574.062,570.073,0.0
55940.0,STARLINK-5864,PAYLOAD,2024-02-29 13:05:20,14.98324816,0.0002703,70.0007,348.0991,277.3304,82.7548,0.0001058,1.169e-05,0.0,0 STARLINK-5864,1 55940U 23037AC  24060.54537150  .00001169  00000-0  10580-3 0  9994,2 55940  70.0007 348.0991 0002703 277.3304  82.7548 14.98324816 53267,6950.209,96.107,573.953,570.195,0.0
